[{"OBJECT_NAME":"ECHOSTAR 16","OBJECT_ID":"2012-065A","EPOCH":"2026-03-28T11:04:04.721664","MEAN_MOTION":1.00272487,"ECCENTRICITY":0.0001991,"INCLINATION":0.018,"RA_OF_ASC_NODE":182.0057,"ARG_OF_PERICENTER":188.9221,"MEAN_ANOMALY":279.4613,"EPHEMERIS_TYPE":0,"CLASSIFICATION_TYPE":"U","NORAD_CAT_ID":39008,"ELEMENT_SET_NO":999,"REV_AT_EPOCH":4883,"BSTAR":0,"MEAN_MOTION_DOT":-3.01e-6,"MEAN_MOTION_DDOT":0},{"OBJECT_NAME":"ZHONGXING-12","OBJECT_ID":"2012-067A","EPOCH":"2026-03-27T03:15:48.336768","MEAN_MOTION":1.00271656,"ECCENTRICITY":0.0003388,"INCLINATION":0.0294,"RA_OF_ASC_NODE":108.7021,"ARG_OF_PERICENTER":250.5025,"MEAN_ANOMALY":321.8044,"EPHEMERIS_TYPE":0,"CLASSIFICATION_TYPE":"U","NORAD_CAT_ID":39017,"ELEMENT_SET_NO":999,"REV_AT_EPOCH":4868,"BSTAR":0,"MEAN_MOTION_DOT":-2.24e-6,"MEAN_MOTION_DDOT":0},{"OBJECT_NAME":"EUTELSAT 70B","OBJECT_ID":"2012-069A","EPOCH":"2026-03-28T16:49:53.533056","MEAN_MOTION":1.00272168,"ECCENTRICITY":0.0001811,"INCLINATION":0.0661,"RA_OF_ASC_NODE":7.5889,"ARG_OF_PERICENTER":1.4609,"MEAN_ANOMALY":140.0203,"EPHEMERIS_TYPE":0,"CLASSIFICATION_TYPE":"U","NORAD_CAT_ID":39020,"ELEMENT_SET_NO":999,"REV_AT_EPOCH":4870,"BSTAR":0,"MEAN_MOTION_DOT":-6.3e-7,"MEAN_MOTION_DDOT":0},{"OBJECT_NAME":"YAMAL 402","OBJECT_ID":"2012-070A","EPOCH":"2026-03-28T19:46:38.898912","MEAN_MOTION":1.00271317,"ECCENTRICITY":0.0004,"INCLINATION":1.0584,"RA_OF_ASC_NODE":85.1636,"ARG_OF_PERICENTER":276.7616,"MEAN_ANOMALY":175.8559,"EPHEMERIS_TYPE":0,"CLASSIFICATION_TYPE":"U","NORAD_CAT_ID":39022,"ELEMENT_SET_NO":999,"REV_AT_EPOCH":4859,"BSTAR":0,"MEAN_MOTION_DOT":6.7e-7,"MEAN_MOTION_DDOT":0},{"OBJECT_NAME":"SKYNET 5D","OBJECT_ID":"2012-075A","EPOCH":"2026-03-28T18:27:29.174688","MEAN_MOTION":1.00272592,"ECCENTRICITY":0.0003673,"INCLINATION":0.0694,"RA_OF_ASC_NODE":5.582,"ARG_OF_PERICENTER":356.0239,"MEAN_ANOMALY":154.1657,"EPHEMERIS_TYPE":0,"CLASSIFICATION_TYPE":"U","NORAD_CAT_ID":39034,"ELEMENT_SET_NO":999,"REV_AT_EPOCH":4835,"BSTAR":0,"MEAN_MOTION_DOT":8.0e-7,"MEAN_MOTION_DDOT":0},{"OBJECT_NAME":"MEXSAT 3","OBJECT_ID":"2012-075B","EPOCH":"2026-03-28T16:22:38.584128","MEAN_MOTION":1.00272058,"ECCENTRICITY":9.67e-5,"INCLINATION":0.0102,"RA_OF_ASC_NODE":188.0498,"ARG_OF_PERICENTER":165.357,"MEAN_ANOMALY":323.5585,"EPHEMERIS_TYPE":0,"CLASSIFICATION_TYPE":"U","NORAD_CAT_ID":39035,"ELEMENT_SET_NO":999,"REV_AT_EPOCH":624,"BSTAR":0,"MEAN_MOTION_DOT":-4.5e-7,"MEAN_MOTION_DDOT":0},{"OBJECT_NAME":"TDRS 11","OBJECT_ID":"2013-004A","EPOCH":"2026-03-28T19:05:18.049920","MEAN_MOTION":1.00271003,"ECCENTRICITY":0.0004437,"INCLINATION":3.4031,"RA_OF_ASC_NODE":29.8134,"ARG_OF_PERICENTER":353.7258,"MEAN_ANOMALY":274.5558,"EPHEMERIS_TYPE":0,"CLASSIFICATION_TYPE":"U","NORAD_CAT_ID":39070,"ELEMENT_SET_NO":999,"REV_AT_EPOCH":4588,"BSTAR":0,"MEAN_MOTION_DOT":6.2e-7,"MEAN_MOTION_DDOT":0},{"OBJECT_NAME":"AMAZONAS 3","OBJECT_ID":"2013-006A","EPOCH":"2026-03-28T17:55:02.287200","MEAN_MOTION":1.00271184,"ECCENTRICITY":0.0002094,"INCLINATION":0.019,"RA_OF_ASC_NODE":202.5673,"ARG_OF_PERICENTER":147.1841,"MEAN_ANOMALY":44.1714,"EPHEMERIS_TYPE":0,"CLASSIFICATION_TYPE":"U","NORAD_CAT_ID":39078,"ELEMENT_SET_NO":999,"REV_AT_EPOCH":4410,"BSTAR":0,"MEAN_MOTION_DOT":-3.02e-6,"MEAN_MOTION_DDOT":0},{"OBJECT_NAME":"AZERSPACE 1","OBJECT_ID":"2013-006B","EPOCH":"2026-03-28T20:08:17.568672","MEAN_MOTION":1.00272031,"ECCENTRICITY":0.0001254,"INCLINATION":0.016,"RA_OF_ASC_NODE":108.1617,"ARG_OF_PERICENTER":285.8215,"MEAN_ANOMALY":140.302,"EPHEMERIS_TYPE":0,"CLASSIFICATION_TYPE":"U","NORAD_CAT_ID":39079,"ELEMENT_SET_NO":999,"REV_AT_EPOCH":4800,"BSTAR":0,"MEAN_MOTION_DOT":1.14e-6,"MEAN_MOTION_DDOT":0},{"OBJECT_NAME":"SBIRS GEO-2 (USA 241)","OBJECT_ID":"2013-011A","EPOCH":"2026-03-28T19:40:50.203200","MEAN_MOTION":1.00271026,"ECCENTRICITY":0.0002241,"INCLINATION":4.3153,"RA_OF_ASC_NODE":52.4083,"ARG_OF_PERICENTER":316.4197,"MEAN_ANOMALY":62.8057,"EPHEMERIS_TYPE":0,"CLASSIFICATION_TYPE":"U","NORAD_CAT_ID":39120,"ELEMENT_SET_NO":999,"REV_AT_EPOCH":4773,"BSTAR":0,"MEAN_MOTION_DOT":-3.02e-6,"MEAN_MOTION_DDOT":0},{"OBJECT_NAME":"EUTELSAT 117 WEST A","OBJECT_ID":"2013-012A","EPOCH":"2026-03-28T15:56:28.656384","MEAN_MOTION":1.00271866,"ECCENTRICITY":0.0002907,"INCLINATION":0.0419,"RA_OF_ASC_NODE":35.2892,"ARG_OF_PERICENTER":332.4899,"MEAN_ANOMALY":300.5955,"EPHEMERIS_TYPE":0,"CLASSIFICATION_TYPE":"U","NORAD_CAT_ID":39122,"ELEMENT_SET_NO":999,"REV_AT_EPOCH":4762,"BSTAR":0,"MEAN_MOTION_DOT":-3.2e-7,"MEAN_MOTION_DDOT":0},{"OBJECT_NAME":"ANIK G1","OBJECT_ID":"2013-014A","EPOCH":"2026-03-28T15:59:13.392672","MEAN_MOTION":1.00271298,"ECCENTRICITY":0.0002579,"INCLINATION":0.0174,"RA_OF_ASC_NODE":116.4184,"ARG_OF_PERICENTER":227.4512,"MEAN_ANOMALY":334.7043,"EPHEMERIS_TYPE":0,"CLASSIFICATION_TYPE":"U","NORAD_CAT_ID":39127,"ELEMENT_SET_NO":999,"REV_AT_EPOCH":4744,"BSTAR":0,"MEAN_MOTION_DOT":-9.4e-7,"MEAN_MOTION_DDOT":0},{"OBJECT_NAME":"ZHONGXING-11","OBJECT_ID":"2013-020A","EPOCH":"2026-03-27T18:42:52.752672","MEAN_MOTION":1.00268189,"ECCENTRICITY":0.00010205,"INCLINATION":0.031,"RA_OF_ASC_NODE":301.3781,"ARG_OF_PERICENTER":84.5221,"MEAN_ANOMALY":177.8728,"EPHEMERIS_TYPE":0,"CLASSIFICATION_TYPE":"U","NORAD_CAT_ID":39157,"ELEMENT_SET_NO":999,"REV_AT_EPOCH":4708,"BSTAR":0,"MEAN_MOTION_DOT":-3.08e-6,"MEAN_MOTION_DDOT":0},{"OBJECT_NAME":"EUTELSAT 7B","OBJECT_ID":"2013-022A","EPOCH":"2026-03-28T20:21:38.559744","MEAN_MOTION":1.00271004,"ECCENTRICITY":0.0006269,"INCLINATION":0.0683,"RA_OF_ASC_NODE":5.1589,"ARG_OF_PERICENTER":357.5539,"MEAN_ANOMALY":135.9292,"EPHEMERIS_TYPE":0,"CLASSIFICATION_TYPE":"U","NORAD_CAT_ID":39163,"ELEMENT_SET_NO":999,"REV_AT_EPOCH":4714,"BSTAR":0,"MEAN_MOTION_DOT":2.8e-7,"MEAN_MOTION_DDOT":0},{"OBJECT_NAME":"WGS F5 (USA 243)","OBJECT_ID":"2013-024A","EPOCH":"2026-03-28T11:06:49.457952","MEAN_MOTION":1.00271308,"ECCENTRICITY":3.14e-5,"INCLINATION":0.0118,"RA_OF_ASC_NODE":179.7184,"ARG_OF_PERICENTER":115.6716,"MEAN_ANOMALY":4.6862,"EPHEMERIS_TYPE":0,"CLASSIFICATION_TYPE":"U","NORAD_CAT_ID":39168,"ELEMENT_SET_NO":999,"REV_AT_EPOCH":4636,"BSTAR":0,"MEAN_MOTION_DOT":-3.04e-6,"MEAN_MOTION_DDOT":0},{"OBJECT_NAME":"SES-6","OBJECT_ID":"2013-026A","EPOCH":"2026-03-28T19:43:34.941216","MEAN_MOTION":1.00270505,"ECCENTRICITY":0.0002095,"INCLINATION":0.0365,"RA_OF_ASC_NODE":307.3127,"ARG_OF_PERICENTER":78.5637,"MEAN_ANOMALY":55.7331,"EPHEMERIS_TYPE":0,"CLASSIFICATION_TYPE":"U","NORAD_CAT_ID":39172,"ELEMENT_SET_NO":999,"REV_AT_EPOCH":4691,"BSTAR":0,"MEAN_MOTION_DOT":-2.81e-6,"MEAN_MOTION_DDOT":0},{"OBJECT_NAME":"IRNSS-1A","OBJECT_ID":"2013-034A","EPOCH":"2026-03-28T00:19:38.724960","MEAN_MOTION":1.00277123,"ECCENTRICITY":0.0016621,"INCLINATION":35.5432,"RA_OF_ASC_NODE":65.0278,"ARG_OF_PERICENTER":190.5814,"MEAN_ANOMALY":349.6873,"EPHEMERIS_TYPE":0,"CLASSIFICATION_TYPE":"U","NORAD_CAT_ID":39199,"ELEMENT_SET_NO":999,"REV_AT_EPOCH":4655,"BSTAR":0,"MEAN_MOTION_DOT":7.9e-7,"MEAN_MOTION_DDOT":0}]
